{
  "type": "FeatureCollection",
  "features": [
    {
      "type": "Feature",
      "properties": {
        "norad_id": 65729,
        "name": "DRAGONFLY",
        "group": "stations",
        "lat": -7.939207145361057,
        "lon": 147.32711634458542,
        "alt_km": 359.9642947189641,
        "timestamp": "2025-12-09T05:43:19.526477+00:00",
        "meta_object_name": "DRAGONFLY",
        "meta_object_id": "1998-067XH",
        "meta_epoch": "2025-12-08T17:32:47.525568",
        "meta_mean_motion": 15.70229086,
        "meta_eccentricity": 0.0006525,
        "meta_inclination": 51.6249,
        "meta_ra_of_asc_node": 156.265,
        "meta_arg_of_pericenter": 251.495,
        "meta_mean_anomaly": 108.5339,
        "meta_ephemeris_type": 0,
        "meta_classification_type": "U",
        "meta_norad_cat_id": 65729,
        "meta_element_set_no": 999,
        "meta_rev_at_epoch": 1253,
        "meta_bstar": 0.0013272,
        "meta_mean_motion_dot": 0.00167478,
        "meta_mean_motion_ddot": 0,
        "tle_line1": "1 65729U 98067XH  25342.73110562  .00167478  00000+0  13272-2 0  9999",
        "tle_line2": "2 65729  51.6249 156.2650 0006525 251.4950 108.5339 15.70229086 12537"
      },
      "geometry": {
        "type": "Point",
        "coordinates": [
          147.32711634458542,
          -7.939207145361057
        ]
      }
    },
    {
      "type": "Feature",
      "properties": {
        "norad_id": 65731,
        "name": "1998-067XK",
        "group": "stations",
        "lat": 51.56011448277872,
        "lon": -118.35568804669165,
        "alt_km": 369.187760861324,
        "timestamp": "2025-12-09T05:43:19.526489+00:00",
        "meta_object_name": "1998-067XK",
        "meta_object_id": "1998-067XK",
        "meta_epoch": "2025-12-08T12:29:14.710560",
        "meta_mean_motion": 15.64682619,
        "meta_eccentricity": 0.00053917,
        "meta_inclination": 51.6277,
        "meta_ra_of_asc_node": 158.6227,
        "meta_arg_of_pericenter": 219.7303,
        "meta_mean_anomaly": 140.3298,
        "meta_ephemeris_type": 0,
        "meta_classification_type": "U",
        "meta_norad_cat_id": 65731,
        "meta_element_set_no": 999,
        "meta_rev_at_epoch": 1248,
        "meta_bstar": 0.00099222834,
        "meta_mean_motion_dot": 0.00098864,
        "meta_mean_motion_ddot": 0,
        "tle_line1": "1 65731U 98067XK  25342.52030915  .00098864  00000+0  99223-3 0  9995",
        "tle_line2": "2 65731  51.6277 158.6227 0005391 219.7303 140.3298 15.64682619 12486"
      },
      "geometry": {
        "type": "Point",
        "coordinates": [
          -118.35568804669165,
          51.56011448277872
        ]
      }
    },
    {
      "type": "Feature",
      "properties": {
        "norad_id": 65732,
        "name": "RSP-03",
        "group": "stations",
        "lat": 19.90193816771746,
        "lon": 171.0257789010907,
        "alt_km": 367.90225095709866,
        "timestamp": "2025-12-09T05:43:19.526500+00:00",
        "meta_object_name": "RSP-03",
        "meta_object_id": "1998-067XL",
        "meta_epoch": "2025-12-08T18:54:04.823712",
        "meta_mean_motion": 15.67324417,
        "meta_eccentricity": 0.0006171,
        "meta_inclination": 51.626,
        "meta_ra_of_asc_node": 156.6485,
        "meta_arg_of_pericenter": 224.9015,
        "meta_mean_anomaly": 135.1483,
        "meta_ephemeris_type": 0,
        "meta_classification_type": "U",
        "meta_norad_cat_id": 65732,
        "meta_element_set_no": 999,
        "meta_rev_at_epoch": 1254,
        "meta_bstar": 0.0012545,
        "meta_mean_motion_dot": 0.00139916,
        "meta_mean_motion_ddot": 0,
        "tle_line1": "1 65732U 98067XL  25342.78755583  .00139916  00000+0  12545-2 0  9994",
        "tle_line2": "2 65732  51.6260 156.6485 0006171 224.9015 135.1483 15.67324417 12545"
      },
      "geometry": {
        "type": "Point",
        "coordinates": [
          171.0257789010907,
          19.90193816771746
        ]
      }
    },
    {
      "type": "Feature",
      "properties": {
        "norad_id": 65733,
        "name": "GHS-01",
        "group": "stations",
        "lat": -36.63064334843661,
        "lon": 9.273908924083656,
        "alt_km": 350.32160446554917,
        "timestamp": "2025-12-09T05:43:19.526510+00:00",
        "meta_object_name": "GHS-01",
        "meta_object_id": "1998-067XM",
        "meta_epoch": "2025-12-08T18:04:32.914272",
        "meta_mean_motion": 15.72738443,
        "meta_eccentricity": 0.000691,
        "meta_inclination": 51.6282,
        "meta_ra_of_asc_node": 155.6685,
        "meta_arg_of_pericenter": 251.9559,
        "meta_mean_anomaly": 108.0687,
        "meta_ephemeris_type": 0,
        "meta_classification_type": "U",
        "meta_norad_cat_id": 65733,
        "meta_element_set_no": 999,
        "meta_rev_at_epoch": 1255,
        "meta_bstar": 0.0015078,
        "meta_mean_motion_dot": 0.00212788,
        "meta_mean_motion_ddot": 0,
        "tle_line1": "1 65733U 98067XM  25342.75315873  .00212788  00000+0  15078-2 0  9999",
        "tle_line2": "2 65733  51.6282 155.6685 0006910 251.9559 108.0687 15.72738443 12555"
      },
      "geometry": {
        "type": "Point",
        "coordinates": [
          9.273908924083656,
          -36.63064334843661
        ]
      }
    },
    {
      "type": "Feature",
      "properties": {
        "norad_id": 65941,
        "name": "YOTSUBA-KULOVER",
        "group": "stations",
        "lat": -48.6651777413436,
        "lon": 93.29825529965328,
        "alt_km": 395.35812432946386,
        "timestamp": "2025-12-09T05:43:19.526521+00:00",
        "meta_object_name": "YOTSUBA-KULOVER",
        "meta_object_id": "1998-067XN",
        "meta_epoch": "2025-12-08T13:06:38.018304",
        "meta_mean_motion": 15.58705702,
        "meta_eccentricity": 0.00016718,
        "meta_inclination": 51.6278,
        "meta_ra_of_asc_node": 161.0428,
        "meta_arg_of_pericenter": 208.1564,
        "meta_mean_anomaly": 151.9338,
        "meta_ephemeris_type": 0,
        "meta_classification_type": "U",
        "meta_norad_cat_id": 65941,
        "meta_element_set_no": 999,
        "meta_rev_at_epoch": 920,
        "meta_bstar": 0.00090838679,
        "meta_mean_motion_dot": 0.0007141,
        "meta_mean_motion_ddot": 0,
        "tle_line1": "1 65941U 98067XN  25342.54627336  .00071410  00000+0  90839-3 0  9991",
        "tle_line2": "2 65941  51.6278 161.0428 0001671 208.1564 151.9338 15.58705702  9200"
      },
      "geometry": {
        "type": "Point",
        "coordinates": [
          93.29825529965328,
          -48.6651777413436
        ]
      }
    },
    {
      "type": "Feature",
      "properties": {
        "norad_id": 65942,
        "name": "BOTAN",
        "group": "stations",
        "lat": -26.217001693160544,
        "lon": -0.06630482809322223,
        "alt_km": 383.21493434407876,
        "timestamp": "2025-12-09T05:43:19.526531+00:00",
        "meta_object_name": "BOTAN",
        "meta_object_id": "1998-067XP",
        "meta_epoch": "2025-12-08T11:54:58.851072",
        "meta_mean_motion": 15.61718865,
        "meta_eccentricity": 0.00036467,
        "meta_inclination": 51.6286,
        "meta_ra_of_asc_node": 160.7119,
        "meta_arg_of_pericenter": 203.3745,
        "meta_mean_anomaly": 156.7083,
        "meta_ephemeris_type": 0,
        "meta_classification_type": "U",
        "meta_norad_cat_id": 65942,
        "meta_element_set_no": 999,
        "meta_rev_at_epoch": 920,
        "meta_bstar": 0.0012042708,
        "meta_mean_motion_dot": 0.00106961,
        "meta_mean_motion_ddot": 0,
        "tle_line1": "1 65942U 98067XP  25342.49651448  .00106961  00000+0  12043-2 0  9997",
        "tle_line2": "2 65942  51.6286 160.7119 0003646 203.3745 156.7083 15.61718865  9203"
      },
      "geometry": {
        "type": "Point",
        "coordinates": [
          -0.06630482809322223,
          -26.217001693160544
        ]
      }
    },
    {
      "type": "Feature",
      "properties": {
        "norad_id": 65943,
        "name": "E-KAGAKU-1",
        "group": "stations",
        "lat": -48.58994847498961,
        "lon": 93.61887934980835,
        "alt_km": 396.1666191297754,
        "timestamp": "2025-12-09T05:43:19.526541+00:00",
        "meta_object_name": "E-KAGAKU-1",
        "meta_object_id": "1998-067XQ",
        "meta_epoch": "2025-12-07T18:38:39.521184",
        "meta_mean_motion": 15.58562644,
        "meta_eccentricity": 0.00029586,
        "meta_inclination": 51.6295,
        "meta_ra_of_asc_node": 164.9078,
        "meta_arg_of_pericenter": 173.7443,
        "meta_mean_anomaly": 186.3587,
        "meta_ephemeris_type": 0,
        "meta_classification_type": "U",
        "meta_norad_cat_id": 65943,
        "meta_element_set_no": 999,
        "meta_rev_at_epoch": 908,
        "meta_bstar": 0.0011280115,
        "meta_mean_motion_dot": 0.00088516,
        "meta_mean_motion_ddot": 0,
        "tle_line1": "1 65943U 98067XQ  25341.77684631  .00088516  00000+0  11280-2 0  9995",
        "tle_line2": "2 65943  51.6295 164.9078 0002958 173.7443 186.3587 15.58562644  9086"
      },
      "geometry": {
        "type": "Point",
        "coordinates": [
          93.61887934980835,
          -48.58994847498961
        ]
      }
    }
  ]
}